SL-16 R/B               
1 25400U 98043G   26056.45300054  .00000069  00000+0  47853-4 0  9990
2 25400  98.8233   9.7315 0010742  53.6205 306.5964 14.26046574437248
SL-16 R/B               
1 25407U 98045B   26056.49491880 -.00000146  00000+0 -49536-4 0  9999
2 25407  71.0107 207.2174 0006090  27.8006 332.3441 14.16191135425370
ISS (ZARYA)             
1 25544U 98067A   26056.57355615  .00009568  00000+0  18600-3 0  9991
2 25544  51.6319 132.2502 0008347 132.4308 227.7387 15.48286925554454
CZ-4B R/B               
1 25732U 99025C   26056.10097651  .00000037  00000+0  38427-4 0  9999
2 25732  98.6655 100.6792 0037441  22.8347   3.3980 14.18262500386380
OKEAN-O                 
1 25860U 99039A   26056.14710125  .00000586  00000+0  83711-4 0  9993
2 25860  97.9471 116.1643 0001603  75.9910 284.1480 14.80312191432537
SL-16 R/B               
1 25861U 99039B   26056.61151167  .00000538  00000+0  75124-4 0  9997
2 25861  97.9994 115.7246 0013556 299.2624  60.7233 14.81712092435076
DELTA 2 R/B             
1 25876U 99041E   26056.19454152  .00001563  00000+0  28923-3 0  9992
2 25876  51.7666 351.1826 0502240 311.5352  44.3510 14.11788581361269
HELIOS 1B               
1 25977U 99064A   26056.27071056  .00001649  00000+0  18766-3 0  9995
2 25977  98.1709 318.1484 0002456  91.6763 268.4733 14.87639299683417
TERRA                   
1 25994U 99068A   26056.61064502  .00000415  00000+0  93735-4 0  9994
2 25994  97.9621 110.5053 0001850 183.2596 330.2665 14.60999820393310
SL-16 R/B               
1 26070U 00006B   26056.50717426  .00000265  00000+0  15904-3 0  9996
2 26070  71.0018 123.4546 0017547 206.9237 153.0978 14.15820542346831
TITAN 4B R/B            
1 26474U 00047B   26056.57079258  .00003110  00000+0  19914-3 0  9997
2 26474  67.9885  74.5862 0037789  49.9650 310.4804 15.09433412391080
ENVISAT                 
1 27386U 02009A   26056.45346214  .00000125  00000+0  54477-4 0  9993
2 27386  98.3706  10.3438 0001377  85.9953  23.9377 14.39031695257418
